ONEWEB-0415             
1 51624U 22012C   24254.78145133 -.00000573  00000+0 -16777-2 0  9990
2 51624  87.8988 164.5091 0002157  78.5859 281.5511 13.10372121124899
ONEWEB-0416             
1 51625U 22012D   24254.79306988 -.00000403  00000+0 -11897-2 0  9999
2 51625  87.8995 164.5064 0001895  71.3410 288.7923 13.10374071124937
ONEWEB-0422             
1 51626U 22012E   24254.75658072  .00000107  00000+0  24359-3 0  9997
2 51626  87.9148 134.2130 0001287 102.7181 257.4094 13.17647958128947
ONEWEB-0423             
1 51627U 22012F   24254.75013242 -.00000077  00000+0 -23151-3 0  9999
2 51627  87.9151 134.2165 0001661  75.3372 284.7944 13.17651125128839
ONEWEB-0425             
1 51628U 22012G   24254.80304309  .00000192  00000+0  51292-3 0  9996
2 51628  87.8994 164.4850 0001804  61.8807 298.2502 13.10377027124938
ONEWEB-0428             
1 51629U 22012H   24255.16490275 -.00000537  00000+0 -15754-2 0  9992
2 51629  87.8992 164.4303 0001864  83.3287 276.8052 13.10373237126222
ONEWEB-0431             
1 51630U 22012J   24254.82947332  .00000585  00000+0  16388-2 0  9992
2 51630  87.8981 164.4881 0002229  91.6579 268.4804 13.10371614124952
ONEWEB-0434             
1 51631U 22012K   24254.80636867  .00000301  00000+0  82525-3 0  9992
2 51631  87.8994 164.5129 0001717  75.7962 284.3356 13.10375641124934
